IRIDIUM 166             
1 43570U 18061B   24082.37544417  .00000163  00000+0  51185-4 0  9999
2 43570  86.3989  38.0739 0002542  88.1247 272.0240 14.34219250296327
IRIDIUM 158             
1 43571U 18061C   24082.41349669  .00000715  00000+0  24824-3 0  9999
2 43571  86.3988  38.0676 0002413  85.4085 274.7386 14.34217036296302
IRIDIUM 165             
1 43572U 18061D   24082.36910220  .00000055  00000+0  12409-4 0  9995
2 43572  86.3992  38.1164 0002355  82.3561 277.7903 14.34217902296312
IRIDIUM 155             
1 43573U 18061E   24082.40081005  .00000744  00000+0  25862-3 0  9992
2 43573  86.3984  38.0126 0002328  89.8090 270.3372 14.34219902296298
IRIDIUM 154             
1 43574U 18061F   24082.38178648  .00000823  00000+0  28689-3 0  9998
2 43574  86.3990  38.1137 0002059  84.6965 275.4466 14.34218536296331
IRIDIUM 163             
1 43575U 18061G   24081.94413490  .00000598  00000+0  20640-3 0  9995
2 43575  86.3986  38.2381 0002122  87.2928 272.8511 14.34224671296247
IRIDIUM 156             
1 43576U 18061H   24081.91877839  .00000301  00000+0  10024-3 0  9991
2 43576  86.3987  38.2548 0002428  84.5658 275.5814 14.34218634296230
IRIDIUM 164             
1 43577U 18061J   24082.38814340  .00000615  00000+0  21268-3 0  9992
2 43577  86.4048  38.0798 0006883  47.9384 312.2397 14.34204737296349
